$$SOE
2460154.500000000, A.D. 2023-Jul-29 00:00:00.0000, -2.108315188585458E+08, -3.088175817771944E+07, 1.469360611998700E+05,
2460161.500000000, A.D. 2023-Aug-05 00:00:00.0000, -2.034269764197935E+08, -4.378720820128857E+07, 2.958501388145275E+05,
2460168.500000000, A.D. 2023-Aug-12 00:00:00.0000, -1.949266275475179E+08, -5.645582858517631E+07, 4.431621913180202E+05,
2460175.500000000, A.D. 2023-Aug-19 00:00:00.0000, -1.852944246622644E+08, -6.879549554827143E+07, 5.878904640037343E+05,
2460182.500000000, A.D. 2023-Aug-26 00:00:00.0000, -1.744978480223474E+08, -8.070149398133235E+07, 7.289113519499525E+05,
2460189.500000000, A.D. 2023-Sep-02 00:00:00.0000, -1.625099983024836E+08, -9.205490603763923E+07, 8.649397028322443E+05,
2460196.500000000, A.D. 2023-Sep-09 00:00:00.0000, -1.493123963735534E+08, -1.027210330740847E+08, 9.945088363512531E+05,
2460203.500000000, A.D. 2023-Sep-16 00:00:00.0000, -1.348986633363207E+08, -1.125480250456064E+08, 1.115952015085310E+06,
2460210.500000000, A.D. 2023-Sep-23 00:00:00.0000, -1.192792548056236E+08, -1.213659971059782E+08, 1.227388274595521E+06,
2460217.500000000, A.D. 2023-Sep-30 00:00:00.0000, -1.024873860095837E+08, -1.289870562225093E+08, 1.326717285798147E+06,
2460224.500000000, A.D. 2023-Oct-07 00:00:00.0000, -8.458617554704101E+07, -1.352068405626349E+08, 1.411630029975429E+06,
2460231.500000000, A.D. 2023-Oct-14 00:00:00.0000, -6.567680384993774E+07, -1.398083650881784E+08, 1.479643805758573E+06,
2460238.500000000, A.D. 2023-Oct-21 00:00:00.0000, -4.590708613698370E+07, -1.425690961660439E+08, 1.528172128484510E+06,
2460245.500000000, A.D. 2023-Oct-28 00:00:00.0000, -2.547928155972766E+07, -1.432721375148898E+08, 1.554640660115011E+06,
2460252.500000000, A.D. 2023-Nov-04 00:00:00.0000, -4.655246359951476E+06, -1.417220202923998E+08, 1.556656375605553E+06,
2460259.500000000, A.D. 2023-Nov-11 00:00:00.0000, 1.624359326541875E+07, -1.377646599417522E+08, 1.532227396033965E+06,
2460266.500000000, A.D. 2023-Nov-18 00:00:00.0000, 3.684410657044769E+07, -1.313095260468513E+08, 1.480014406036876E+06,
2460273.500000000, A.D. 2023-Nov-25 00:00:00.0000, 5.673893898948877E+07, -1.223502731295222E+08, 1.399573974138580E+06,
2460280.500000000, A.D. 2023-Dec-02 00:00:00.0000, 7.551320403308451E+07, -1.109787865872274E+08, 1.291537761796825E+06,
2460287.500000000, A.D. 2023-Dec-09 00:00:00.0000, 9.277691622554705E+07, -9.738784874668875E+07, 1.157671558063410E+06,
2460294.500000000, A.D. 2023-Dec-16 00:00:00.0000, 1.081970328416093E+08, -8.186000878976004E+07, 1.000781951087557E+06,
2460301.500000000, A.D. 2023-Dec-23 00:00:00.0000, 1.215222807045326E+08, -6.474412687759800E+07, 8.244806553738043E+05,
2460308.500000000, A.D. 2023-Dec-30 00:00:00.0000, 1.325959048329959E+08, -4.642469195682415E+07, 6.328584040065873E+05,
2460315.500000000, A.D. 2024-Jan-06 00:00:00.0000, 1.413551992648595E+08, -2.729060398588716E+07, 4.301409755545482E+05,
2460322.500000000, A.D. 2024-Jan-13 00:00:00.0000, 1.478202940170777E+08, -7.709127598248525E+06, 2.203920108105438E+05,
2460329.500000000, A.D. 2024-Jan-20 00:00:00.0000, 1.520766525663844E+08, 1.199189763371836E+07, 7.300858395440504E+03,
2460336.500000000, A.D. 2024-Jan-27 00:00:00.0000, 1.542557801486915E+08, 3.153325661925863E+07, -2.059364963126574E+05,
2460343.500000000, A.D. 2024-Feb-03 00:00:00.0000, 1.545174376876103E+08, 5.068648615395169E+07, -4.166571677205898E+05,
2460350.500000000, A.D. 2024-Feb-10 00:00:00.0000, 1.530351106922491E+08, 6.927116913478081E+07, -6.227148798662908E+05,
2460357.500000000, A.D. 2024-Feb-17 00:00:00.0000, 1.499852146393763E+08, 8.714952504215141E+07, -8.224302748294845E+05,
2460364.500000000, A.D. 2024-Feb-24 00:00:00.0000, 1.455397383080974E+08, 1.042199230703974E+08, -1.014526208852984E+06,
2460371.500000000, A.D. 2024-Mar-02 00:00:00.0000, 1.398616784752951E+08, 1.204103741799252E+08, -1.198060268523283E+06,
2460378.500000000, A.D. 2024-Mar-09 00:00:00.0000, 1.331025546629617E+08, 1.356725857098534E+08, -1.372361605123624E+06,
2460385.500000000, A.D. 2024-Mar-16 00:00:00.0000, 1.254013729234386E+08, 1.499768327789167E+08, -1.536975483901411E+06,
2460392.500000000, A.D. 2024-Mar-23 00:00:00.0000, 1.168845386329016E+08, 1.633076998680336E+08, -1.691616490416579E+06,
2460399.500000000, A.D. 2024-Mar-30 00:00:00.0000, 1.076663483073878E+08, 1.756606366873123E+08, -1.836129912461869E+06,
2460406.500000000, A.D. 2024-Apr-06 00:00:00.0000, 9.784980460356344E+07, 1.870392214653815E+08, -1.970460674727350E+06,
2460413.500000000, A.D. 2024-Apr-13 00:00:00.0000, 8.752758779363936E+07, 1.974530161904639E+08, -2.094628966906145E+06,
2460420.500000000, A.D. 2024-Apr-20 00:00:00.0000, 7.678307431349103E+07, 2.069159054723802E+08, -2.208711141652837E+06,
2460427.500000000, A.D. 2024-Apr-27 00:00:00.0000, 6.569133523281209E+07, 2.154448209290649E+08, -2.312824771753207E+06,
2460434.500000000, A.D. 2024-May-04 00:00:00.0000, 5.432007775222207E+07, 2.230587686442986E+08, -2.407117064052165E+06,
2460441.500000000, A.D. 2024-May-11 00:00:00.0000, 4.273051152089380E+07, 2.297780930776552E+08, -2.491755944171846E+06,
2460448.500000000, A.D. 2024-May-18 00:00:00.0000, 3.097813301968518E+07, 2.356239243827343E+08, -2.566923239247069E+06,
2460455.500000000, A.D. 2024-May-25 00:00:00.0000, 1.911342818009631E+07, 2.406177673558724E+08, -2.632809501181707E+06,
2460462.500000000, A.D. 2024-Jun-01 00:00:00.0000, 7.182497412258482E+06, 2.447811993806125E+08, -2.689610118581757E+06,
2460469.500000000, A.D. 2024-Jun-08 00:00:00.0000, -4.772390547166452E+06, 2.481356520972467E+08, -2.737522459947720E+06,
2460476.500000000, A.D. 2024-Jun-15 00:00:00.0000, -1.671230854114786E+07, 2.507022578496645E+08, -2.776743821911603E+06,
2460483.500000000, A.D. 2024-Jun-22 00:00:00.0000, -2.860123849345092E+07, 2.525017470619138E+08, -2.807469824484006E+06,
2460490.500000000, A.D. 2024-Jun-29 00:00:00.0000, -4.040569176014034E+07, 2.535543831404317E+08, -2.829893070244163E+06,
2460497.500000000, A.D. 2024-Jul-06 00:00:00.0000, -5.209437339894139E+07, 2.538799235520505E+08, -2.844202395386875E+06,
2460504.500000000, A.D. 2024-Jul-13 00:00:00.0000, -6.363788273028009E+07, 2.534976032608379E+08, -2.850582578587934E+06,
2460511.500000000, A.D. 2024-Jul-20 00:00:00.0000, -7.500844701400794E+07, 2.524261366797985E+08, -2.849214179826066E+06,
2460518.500000000, A.D. 2024-Jul-27 00:00:00.0000, -8.617968429318127E+07, 2.506837333634858E+08, -2.840273486395404E+06,
2460525.500000000, A.D. 2024-Aug-03 00:00:00.0000, -9.712639108947232E+07, 2.482881241867422E+08, -2.823932588083684E+06,
2460532.500000000, A.D. 2024-Aug-10 00:00:00.0000, -1.078243512554157E+08, 2.452565958767745E+08, -2.800359570204735E+06,
2460539.500000000, A.D. 2024-Aug-17 00:00:00.0000, -1.182501628586040E+08, 2.416060323956770E+08, -2.769718806649297E+06,
2460546.500000000, A.D. 2024-Aug-24 00:00:00.0000, -1.283810803831140E+08, 2.373529621107285E+08, -2.732171342823520E+06,
2460553.500000000, A.D. 2024-Aug-31 00:00:00.0000, -1.381948697834013E+08, 2.325136100409011E+08, -2.687875374514565E+06,
2460560.500000000, A.D. 2024-Sep-07 00:00:00.0000, -1.476696739690248E+08, 2.271039549761116E+08, -2.636986840216607E+06,
2460567.500000000, A.D. 2024-Sep-14 00:00:00.0000, -1.567838868360645E+08, 2.211397924068057E+08, -2.579660051036894E+06,
2460574.500000000, A.D. 2024-Sep-21 00:00:00.0000, -1.655160363034770E+08, 2.146368038649627E+08, -2.516048140122533E+06,
2460581.500000000, A.D. 2024-Sep-28 00:00:00.0000, -1.738446754540392E+08, 2.076106298633041E+08, -2.446303555609092E+06,
2460588.500000000, A.D. 2024-Oct-05 00:00:00.0000, -1.817482768789773E+08, 2.000769470275493E+08, -2.370578936450467E+06,
2460595.500000000, A.D. 2024-Oct-12 00:00:00.0000, -1.892051295477686E+08, 1.920515532054304E+08, -2.289028101147994E+06,
2460602.500000000, A.D. 2024-Oct-19 00:00:00.0000, -1.961932390655228E+08, 1.835504613384859E+08, -2.201807024392560E+06,
2460609.500000000, A.D. 2024-Oct-26 00:00:00.0000, -2.026902305867230E+08, 1.745900025775880E+08, -2.109074877976112E+06,
2460616.500000000, A.D. 2024-Nov-02 00:00:00.0000, -2.086732535173489E+08, 1.651869400282022E+08, -2.010995187368885E+06,
2460623.500000000, A.D. 2024-Nov-09 00:00:00.0000, -2.141188874667384E+08, 1.553585949800061E+08, -1.907737130649976E+06,
2460630.500000000, A.D. 2024-Nov-16 00:00:00.0000, -2.190030491710086E+08, 1.451229877993749E+08, -1.799477005831994E+06,
2460637.500000000, A.D. 2024-Nov-23 00:00:00.0000, -2.233009003163614E+08, 1.344989960111956E+08, -1.686399903244637E+06,
2460644.500000000, A.D. 2024-Nov-30 00:00:00.0000, -2.269867563129398E+08, 1.235065325679298E+08, -1.568701639133207E+06,
2460651.500000000, A.D. 2024-Dec-07 00:00:00.0000, -2.300339962217512E+08, 1.121667483096807E+08, -1.446590994261026E+06,
2460658.500000000, A.D. 2024-Dec-14 00:00:00.0000, -2.324149756208465E+08, 1.005022640559485E+08, -1.320292141428843E+06,
2460665.500000000, A.D. 2024-Dec-21 00:00:00.0000, -2.341009464645887E+08, 8.853743604819280E+07, -1.190047207676176E+06,
2460672.500000000, A.D. 2024-Dec-28 00:00:00.0000, -2.350619845389713E+08, 7.629865761179265E+07, -1.056119462918311E+06,
2460679.500000000, A.D. 2025-Jan-04 00:00:00.0000, -2.352669255701595E+08, 6.381470624039482E+07, -9.187972552273609E+05,
2460686.500000000, A.D. 2025-Jan-11 00:00:00.0000, -2.346833169432149E+08, 5.111714567847914E+07, -7.783984785750769E+05,
2460693.500000000, A.D. 2025-Jan-18 00:00:00.0000, -2.332773931197505E+08, 3.824079124761217E+07, -6.352756737389714E+05,
2460700.500000000, A.D. 2025-Jan-25 00:00:00.0000, -2.310140843486976E+08, 2.522424845647215E+07, -4.898219499427509E+05,
2460707.500000000, A.D. 2025-Feb-01 00:00:00.0000, -2.278570718672089E+08, 1.211053670733181E+07, -3.424778887732993E+05,
2460714.500000000, A.D. 2025-Feb-08 00:00:00.0000, -2.237689076771091E+08, -1.052188849578425E+06, -1.937395933130982E+05,
2460721.500000000, A.D. 2025-Feb-15 00:00:00.0000, -2.187112233325982E+08, -1.420980349936001E+07, -4.416806109073199E+04,
$$EOE